[{"OBJECT_NAME":"VSP ROSE","OBJECT_ID":"2024-043AC","EPOCH":"2026-03-09T21:48:06.922944","MEAN_MOTION":15.27746075,"ECCENTRICITY":0.00099339,"INCLINATION":97.5443,"RA_OF_ASC_NODE":203.927,"ARG_OF_PERICENTER":232.2702,"MEAN_ANOMALY":127.7637,"EPHEMERIS_TYPE":0,"CLASSIFICATION_TYPE":"U","NORAD_CAT_ID":59124,"ELEMENT_SET_NO":999,"REV_AT_EPOCH":11182,"BSTAR":0.00025731354,"MEAN_MOTION_DOT":6.907e-5,"MEAN_MOTION_DDOT":0},{"OBJECT_NAME":"STARLINK-31659","OBJECT_ID":"2024-050A","EPOCH":"2026-03-09T12:32:24.838080","MEAN_MOTION":15.30203311,"ECCENTRICITY":0.00014462,"INCLINATION":53.1607,"RA_OF_ASC_NODE":179.5954,"ARG_OF_PERICENTER":108.186,"MEAN_ANOMALY":251.9299,"EPHEMERIS_TYPE":0,"CLASSIFICATION_TYPE":"U","NORAD_CAT_ID":59254,"ELEMENT_SET_NO":999,"REV_AT_EPOCH":11170,"BSTAR":0.00013770167,"MEAN_MOTION_DOT":3.722e-5,"MEAN_MOTION_DDOT":0}]
